*******************************************************************************
JPL/HORIZONS               991 McDonalda (A922 UC)         2023-Sep-04 11:09:34
Rec #:     991 (+COV) Soln.date: 2023-Aug-25_04:12:36   # obs: 4284 (1936-2023)
 
IAU76/J2000 helio. ecliptic osc. elements (au, days, deg., period=Julian yrs):
 
  EPOCH=  2457251.5 ! 2015-Aug-17.00 (TDB)         Residual RMS= .26164
   EC= .1576928849880743   QR= 2.645715215121433   TP= 2457648.8767373697
   OM= 63.25702689663061   W=  254.7303634448894   IN= 2.06976774387531
   A= 3.141033915027506    MA= 289.6445775541447   ADIST= 3.63635261493358
   PER= 5.56695            N= .177049676           ANGMOM= .030105765
   DAN= 3.19564            DDN= 2.94079            L= 317.9778876
   B= -1.9966688           MOID= 1.6329            TP= 2016-Sep-17.3767373697
 
Asteroid physical parameters (km, seconds, rotational period in hours):
   GM= n.a.                RAD= 19.278             ROTPER= n.a.
   H= 11.24                G= .150                 B-V= .660
                           ALBEDO= .040            STYP= C:

ASTEROID comments: 
1: soln ref.= JPL#57, OCC=0
2: source=ORB
*******************************************************************************


*******************************************************************************
Ephemeris / API_USER Mon Sep  4 11:09:34 2023 Pasadena, USA      / Horizons
*******************************************************************************
Target body name: 991 McDonalda (A922 UC)         {source: JPL#57}
Center body name: Solar System Barycenter (0)     {source: DE441}
Center-site name: BODY CENTER
*******************************************************************************
Start time      : A.D. 2023-Aug-12 00:00:00.0000 TDB
Stop  time      : A.D. 2023-Aug-13 00:00:00.0000 TDB
Step-size       : 2880 minutes
*******************************************************************************
Center geodetic : 0.0, 0.0, 0.0                   {E-lon(deg),Lat(deg),Alt(km)}
Center cylindric: 0.0, 0.0, 0.0                   {E-lon(deg),Dxy(km),Dz(km)}
Center radii    : (undefined)
Small perturbers: Yes                             {source: SB441-N16}
Output units    : KM-S
Calendar mode   : Mixed Julian/Gregorian
Output type     : GEOMETRIC cartesian states
Output format   : 2 (position and velocity)
Reference frame : Ecliptic of J2000.0
*******************************************************************************
Initial IAU76/J2000 heliocentric ecliptic osculating elements (au, days, deg.):
  EPOCH=  2457251.5 ! 2015-Aug-17.00 (TDB)         Residual RMS= .26164        
   EC= .1576928849880743   QR= 2.645715215121433   TP= 2457648.8767373697      
   OM= 63.25702689663061   W=  254.7303634448894   IN= 2.06976774387531        
  Equivalent ICRF heliocentric cartesian coordinates (au, au/d):
   X=-1.970970430007914E+00  Y=-2.143851877308862E+00  Z=-9.013605834213970E-01
  VX= 8.528860087457662E-03 VY=-4.629314796782664E-03 VZ=-2.399274269276557E-03
Asteroid physical parameters (km, seconds, rotational period in hours):        
   GM= n.a.                RAD= 19.278             ROTPER= n.a.                
   H= 11.24                G= .150                 B-V= .660                   
                           ALBEDO= .040            STYP= C:                    
*******************************************************************************
JDTDB
   X     Y     Z
   VX    VY    VZ
*******************************************************************************
$$SOE
2460168.500000000 = A.D. 2023-Aug-12 00:00:00.0000 TDB 
 X = 2.216130190648974E+08 Y = 4.218595271822407E+08 Z =-2.776282429714501E+05
 VX=-1.317888097708688E+01 VY= 9.953466122133561E+00 VZ= 5.877475775113967E-01
$$EOE
*******************************************************************************
 
TIME

  Barycentric Dynamical Time ("TDB" or T_eph) output was requested. This
continuous coordinate time is equivalent to the relativistic proper time
of a clock at rest in a reference frame co-moving with the solar system
barycenter but outside the system's gravity well. It is the independent
variable in the solar system relativistic equations of motion.

  TDB runs at a uniform rate of one SI second per second and is independent
of irregularities in Earth's rotation.
 
CALENDAR SYSTEM

  Mixed calendar mode was active such that calendar dates after AD 1582-Oct-15
(if any) are in the modern Gregorian system. Dates prior to 1582-Oct-5 (if any)
are in the Julian calendar system, which is automatically extended for dates
prior to its adoption on 45-Jan-1 BC.  The Julian calendar is useful for
matching historical dates. The Gregorian calendar more accurately corresponds
to the Earth's orbital motion and seasons. A "Gregorian-only" calendar mode is
available if such physical events are the primary interest.

REFERENCE FRAME AND COORDINATES

  Ecliptic at the standard reference epoch

    Reference epoch: J2000.0
    X-Y plane: adopted Earth orbital plane at the reference epoch
               Note: IAU76 obliquity of 84381.448 arcseconds wrt ICRF X-Y plane
    X-axis   : ICRF
    Z-axis   : perpendicular to the X-Y plane in the directional (+ or -) sense
               of Earth's north pole at the reference epoch.

  Symbol meaning:

    JDTDB    Julian Day Number, Barycentric Dynamical Time
      X      X-component of position vector (km)
      Y      Y-component of position vector (km)
      Z      Z-component of position vector (km)
      VX     X-component of velocity vector (km/sec)                           
      VY     Y-component of velocity vector (km/sec)                           
      VZ     Z-component of velocity vector (km/sec)                           

ABERRATIONS AND CORRECTIONS

 Geometric state vectors have NO corrections or aberrations applied.

Computations by ...

    Solar System Dynamics Group, Horizons On-Line Ephemeris System
    4800 Oak Grove Drive, Jet Propulsion Laboratory
    Pasadena, CA  91109   USA

    General site: https://ssd.jpl.nasa.gov/
    Mailing list: https://ssd.jpl.nasa.gov/email_list.html
    System news : https://ssd.jpl.nasa.gov/horizons/news.html
    User Guide  : https://ssd.jpl.nasa.gov/horizons/manual.html
    Connect     : browser        https://ssd.jpl.nasa.gov/horizons/app.html#/x
                  API            https://ssd-api.jpl.nasa.gov/doc/horizons.html
                  command-line   telnet ssd.jpl.nasa.gov 6775
                  e-mail/batch   https://ssd.jpl.nasa.gov/ftp/ssd/hrzn_batch.txt
                  scripts        https://ssd.jpl.nasa.gov/ftp/ssd/SCRIPTS
    Author      : Jon.D.Giorgini@jpl.nasa.gov
*******************************************************************************
